CTC2_L_00626007-03
1 85207U 25540TS  26070.40851852  .00000000  00000+0  00000-0 0  9995
2 85207  55.0000 180.0000 0000000   0.0000 144.0000  4.55247085    13
CTC2_L_00626007-04
1 85208U 23846MQ  26070.40851852  .00000000  00000+0  00000-0 0  9993
2 85208  55.0000 180.0000 0000000   0.0000 180.0000  4.55247085    14
CTC2_L_00626007-05
1 85209U 22825ZQ  26070.40851852  .00000000  00000+0  00000-0 0  9990
2 85209  55.0000 180.0000 0000000   0.0000 216.0000  4.55247085    15
CTC2_L_00626007-06
1 85210U 25552DX  26070.40851852  .00000000  00000+0  00000-0 0  9992
2 85210  55.0000 180.0000 0000000   0.0000 252.0000  4.55247085    17
CTC2_L_00626007-07
1 85211U 25194OH  26070.40851852  .00000000  00000+0  00000-0 0  9995
2 85211  55.0000 180.0000 0000000   0.0000 288.0000  4.55247085    17
CTC2_L_00626007-08
1 85212U 22089DT  26070.40851852  .00000000  00000+0  00000-0 0  9996
2 85212  55.0000 180.0000 0000000   0.0000 324.0000  4.55247085    19
CTC2_L_00626007-09
1 85213U 25960NZ  26070.40851852  .00000000  00000+0  00000-0 0  9998
2 85213  55.0000 180.0000 0000000   0.0000   0.0000  4.55247085    11
CTC2_L_00626007-10
1 85214U 25334DL  26070.40851852  .00000000  00000+0  00000-0 0  9994
2 85214  55.0000 180.0000 0000000   0.0000  36.0000  4.55247085    11
CTC2_L_00626008-01
1 85215U 25768NH  26070.40851852  .00000000  00000+0  00000-0 0  9996
2 85215  55.0000 210.0000 0000000   0.0000  84.0000  4.55247085    19
CTC2_L_00626008-02
1 85216U 23832CV  26070.40851852  .00000000  00000+0  00000-0 0  9997
2 85216  55.0000 210.0000 0000000   0.0000 120.0000  4.55247085    11
CTC2_L_00626008-03
1 85217U 24336YK  26070.40851852  .00000000  00000+0  00000-0 0  9998
2 85217  55.0000 210.0000 0000000   0.0000 156.0000  4.55247085    11
CTC2_L_00626008-04
1 85218U 22280AT  26070.40851852  .00000000  00000+0  00000-0 0  9995
2 85218  55.0000 210.0000 0000000   0.0000 192.0000  4.55247085    12
CTC2_L_00626008-05
1 85219U 25986MX  26070.40851852  .00000000  00000+0  00000-0 0  9992
2 85219  55.0000 210.0000 0000000   0.0000 228.0000  4.55247085    13
CTC2_L_00626008-06
1 85220U 24327PZ  26070.40851852  .00000000  00000+0  00000-0 0  9992
2 85220  55.0000 210.0000 0000000   0.0000 264.0000  4.55247085    15
CTC2_L_00626008-07
1 85221U 24361MG  26070.40851852  .00000000  00000+0  00000-0 0  9991
2 85221  55.0000 210.0000 0000000   0.0000 300.0000  4.55247085    17
CTC2_L_00626008-08
1 85222U 26045HM  26070.40851852  .00000000  00000+0  00000-0 0  9993
2 85222  55.0000 210.0000 0000000   0.0000 336.0000  4.55247085    17
CTC2_L_00626008-09
1 85223U 25250JG  26070.40851852  .00000000  00000+0  00000-0 0  9991
2 85223  55.0000 210.0000 0000000   0.0000  12.0000  4.55247085    19
CTC2_L_00626008-10
1 85224U 25886BR  26070.40851852  .00000000  00000+0  00000-0 0  9997
2 85224  55.0000 210.0000 0000000   0.0000  48.0000  4.55247085    19
CTC2_L_00626009-01
1 85225U 25933IE  26070.40851852  .00000000  00000+0  00000-0 0  9991
2 85225  55.0000 240.0000 0000000   0.0000  96.0000  4.55247085    16
CTC2_L_00626009-02
1 85226U 26001GR  26070.40851852  .00000000  00000+0  00000-0 0  9999
2 85226  55.0000 240.0000 0000000   0.0000 132.0000  4.55247085    18
CTC2_L_00626009-03
1 85227U 26967SJ  26070.40851852  .00000000  00000+0  00000-0 0  9991
2 85227  55.0000 240.0000 0000000   0.0000 168.0000  4.55247085    18
CTC2_L_00626009-04
1 85228U 22600BC  26070.40851852  .00000000  00000+0  00000-0 0  9992
2 85228  55.0000 240.0000 0000000   0.0000 204.0000  4.55247085    10
CTC2_L_00626009-05
1 85229U 24124OB  26070.40851852  .00000000  00000+0  00000-0 0  9996
2 85229  55.0000 240.0000 0000000   0.0000 240.0000  4.55247085    11
CTC2_L_00626009-06
1 85230U 22081CV  26070.40851852  .00000000  00000+0  00000-0 0  9998
2 85230  55.0000 240.0000 0000000   0.0000 276.0000  4.55247085    12
CTC2_L_00626009-07
1 85231U 25928KF  26070.40851852  .00000000  00000+0  00000-0 0  9992
2 85231  55.0000 240.0000 0000000   0.0000 312.0000  4.55247085    14
CTC2_L_00626009-08
1 85232U 23883RV  26070.40851852  .00000000  00000+0  00000-0 0  9991
2 85232  55.0000 240.0000 0000000   0.0000 348.0000  4.55247085    14
CTC2_L_00626009-09
1 85233U 26359TW  26070.40851852  .00000000  00000+0  00000-0 0  9993
2 85233  55.0000 240.0000 0000000   0.0000  24.0000  4.55247085    16
CTC2_L_00626009-10
1 85234U 23833R   26070.40851852  .00000000  00000+0  00000-0 0  9998
2 85234  55.0000 240.0000 0000000   0.0000  60.0000  4.55247085    17
CTC2_L_00626010-01
1 85235U 23657N   26070.40851852  .00000000  00000+0  00000-0 0  9993
2 85235  55.0000 270.0000 0000000   0.0000 108.0000  4.55247085    14
CTC2_L_00626010-02
1 85236U 24546VX  26070.40851852  .00000000  00000+0  00000-0 0  9992
2 85236  55.0000 270.0000 0000000   0.0000 144.0000  4.55247085    15
CTC2_L_00626010-03
1 85237U 22804IU  26070.40851852  .00000000  00000+0  00000-0 0  9998
2 85237  55.0000 270.0000 0000000   0.0000 180.0000  4.55247085    16
CTC2_L_00626010-04
1 85238U 26320NC  26070.40851852  .00000000  00000+0  00000-0 0  9996
2 85238  55.0000 270.0000 0000000   0.0000 216.0000  4.55247085    17
CTC2_L_00626010-05
1 85239U 23912FP  26070.40851852  .00000000  00000+0  00000-0 0  9991
2 85239  55.0000 270.0000 0000000   0.0000 252.0000  4.55247085    18
CTC2_L_00626010-06
1 85240U 25148TS  26070.40851852  .00000000  00000+0  00000-0 0  9996
2 85240  55.0000 270.0000 0000000   0.0000 288.0000  4.55247085    19
CTC2_L_00626010-07
1 85241U 22893JE  26070.40851852  .00000000  00000+0  00000-0 0  9991
2 85241  55.0000 270.0000 0000000   0.0000 324.0000  4.55247085    11
CTC2_L_00626010-08
1 85242U 22775GG  26070.40851852  .00000000  00000+0  00000-0 0  9991
2 85242  55.0000 270.0000 0000000   0.0000   0.0000  4.55247085    13
CTC2_L_00626010-09
1 85243U 25133EP  26070.40851852  .00000000  00000+0  00000-0 0  9993
2 85243  55.0000 270.0000 0000000   0.0000  36.0000  4.55247085    13
CTC2_L_00626010-10
1 85244U 23470JP  26070.40851852  .00000000  00000+0  00000-0 0  9996
2 85244  55.0000 270.0000 0000000   0.0000  72.0000  4.55247085    14
CTC2_L_00626011-01
1 85245U 23947DH  26070.40851852  .00000000  00000+0  00000-0 0  9996
2 85245  55.0000 300.0000 0000000   0.0000 120.0000  4.55247085    13
CTC2_L_00626011-02
1 85246U 26119QO  26070.40851852  .00000000  00000+0  00000-0 0  9991
2 85246  55.0000 300.0000 0000000   0.0000 156.0000  4.55247085    13
CTC2_L_00626011-03
1 85247U 24501WL  26070.40851852  .00000000  00000+0  00000-0 0  9995
2 85247  55.0000 300.0000 0000000   0.0000 192.0000  4.55247085    14
CTC2_L_00626011-04
1 85248U 26629DL  26070.40851852  .00000000  00000+0  00000-0 0  9999
2 85248  55.0000 300.0000 0000000   0.0000 228.0000  4.55247085    15
CTC2_L_00626011-05
1 85249U 22970DC  26070.40851852  .00000000  00000+0  00000-0 0  9995
2 85249  55.0000 300.0000 0000000   0.0000 264.0000  4.55247085    16
CTC2_L_00626011-06
1 85250U 22456LB  26070.40851852  .00000000  00000+0  00000-0 0  9996
2 85250  55.0000 300.0000 0000000   0.0000 300.0000  4.55247085    19
CTC2_L_00626011-07
1 85251U 24155TF  26070.40851852  .00000000  00000+0  00000-0 0  9995
2 85251  55.0000 300.0000 0000000   0.0000 336.0000  4.55247085    19
CTC2_L_00626011-08
1 85252U 25883OF  26070.40851852  .00000000  00000+0  00000-0 0  9995
2 85252  55.0000 300.0000 0000000   0.0000  12.0000  4.55247085    11
CTC2_L_00626011-09
1 85253U 23772YC  26070.40851852  .00000000  00000+0  00000-0 0  9991
2 85253  55.0000 300.0000 0000000   0.0000  48.0000  4.55247085    11
CTC2_L_00626011-10
1 85254U 23300AZ  26070.40851852  .00000000  00000+0  00000-0 0  9999
2 85254  55.0000 300.0000 0000000   0.0000  84.0000  4.55247085    12
CTC2_L_00626012-01
1 85255U 22663ZT  26070.40851852  .00000000  00000+0  00000-0 0  9991
2 85255  55.0000 330.0000 0000000   0.0000 132.0000  4.55247085    10
CTC2_L_00626012-02
1 85256U 23219AT  26070.40851852  .00000000  00000+0  00000-0 0  9990
2 85256  55.0000 330.0000 0000000   0.0000 168.0000  4.55247085    10
CTC2_L_00626012-03
1 85257U 24065FO  26070.40851852  .00000000  00000+0  00000-0 0  9991
2 85257  55.0000 330.0000 0000000   0.0000 204.0000  4.55247085    12
CTC2_L_00626012-04
1 85258U 25165QV  26070.40851852  .00000000  00000+0  00000-0 0  9994
2 85258  55.0000 330.0000 0000000   0.0000 240.0000  4.55247085    13
CTC2_L_00626012-05
1 85259U 24564ST  26070.40851852  .00000000  00000+0  00000-0 0  9997
2 85259  55.0000 330.0000 0000000   0.0000 276.0000  4.55247085    13
CTC2_L_00626012-06
1 85260U 22335WS  26070.40851852  .00000000  00000+0  00000-0 0  9993
2 85260  55.0000 330.0000 0000000   0.0000 312.0000  4.55247085    16
CTC2_L_00626012-07
1 85261U 24196KP  26070.40851852  .00000000  00000+0  00000-0 0  9991
2 85261  55.0000 330.0000 0000000   0.0000 348.0000  4.55247085    16
CTC2_L_00626012-08
1 85262U 26784WG  26070.40851852  .00000000  00000+0  00000-0 0  9997
2 85262  55.0000 330.0000 0000000   0.0000  24.0000  4.55247085    18
CTC2_L_00626012-09
1 85263U 26953KW  26070.40851852  .00000000  00000+0  00000-0 0  9996
2 85263  55.0000 330.0000 0000000   0.0000  60.0000  4.55247085    19
CTC2_L_00626012-10
1 85264U 24668M   26070.40851852  .00000000  00000+0  00000-0 0  9998
2 85264  55.0000 330.0000 0000000   0.0000  96.0000  4.55247085    19
